[{"OBJECT_NAME":"YAOGAN-30 05C","OBJECT_ID":"2018-011D","EPOCH":"2026-03-09T22:46:23.359872","MEAN_MOTION":15.02099637,"ECCENTRICITY":0.00031952,"INCLINATION":34.998,"RA_OF_ASC_NODE":35.5831,"ARG_OF_PERICENTER":272.2506,"MEAN_ANOMALY":87.7836,"EPHEMERIS_TYPE":0,"CLASSIFICATION_TYPE":"U","NORAD_CAT_ID":43172,"ELEMENT_SET_NO":999,"REV_AT_EPOCH":44315,"BSTAR":0.00032814398,"MEAN_MOTION_DOT":4.373e-5,"MEAN_MOTION_DDOT":0},{"OBJECT_NAME":"STARLINK-34959","OBJECT_ID":"2025-179M","EPOCH":"2026-03-09T16:38:13.453728","MEAN_MOTION":15.05647685,"ECCENTRICITY":5.195e-5,"INCLINATION":97.6022,"RA_OF_ASC_NODE":112.8869,"ARG_OF_PERICENTER":150.1966,"MEAN_ANOMALY":209.9291,"EPHEMERIS_TYPE":0,"CLASSIFICATION_TYPE":"U","NORAD_CAT_ID":65246,"ELEMENT_SET_NO":999,"REV_AT_EPOCH":3182,"BSTAR":8.6911505e-5,"MEAN_MOTION_DOT":1.193e-5,"MEAN_MOTION_DDOT":0}]
